id,name,priority,website,aum,sectors,company_type,coverage_person,sample_portfolio_companies,comments,description,address,city,state,country
1,AEA Investors LP,,www.aeainvestors.com,10000000000.0,Consumer products; Industrial,PE Firm,,Traeger (Current); Barnet (Cosmetic),,,,,,
2,Audax Private Equity,,www.audaxprivateequity.com,11500000000.0,Industrial,PE Firm,,Chem Specialty Chemicals,We have experience with specialty chemicals with with they have about 5 portfolio companies,,,,,
3,CCMP Capital,,www.ccmpcapital.com,12000000000.0,Consumer products; Industrial,PE Firm,,Jetro Cash & Carry; Shoes for Crews,Are big on Consumer and industrial,,,,,
4,Clayton Dubilier & Rice,,www.cdr-inc.com,18000000000.0,Consumer products; Industrial,PE Firm,,Roofing Supply Group; US Foods; HD Supply,,,,,,
5,Crestview Partners,,www.crestview.com,20000000000.0,Industrial Products,PE Firm,,Key Safety Systems; Accuride corporation,Have industrial products focus,,,,,
6,Genstar Capital,,www.gencap.com,8500000000.0,Industrial Products,PE Firm,,Pretium Packaging; Fort Dearborn Company,,,,,,
7,Golden Gate Capital,,www.goldengatecap.com,14000000000.0,Consumer products; Industrial,PE Firm,,Eddie Bauer; Pacsun,"Mr. Thomas focuses on investments in Industrials, and basic materials sector in particular main office number",,,,,
8,Gores Group,,www.gores.com,2400000000.0,Consumer products; Industrial,PE Firm,,Sage Automotive (previously),One of their strategies on some of their case studies is addons (e.g Sage Automotive)… they might want add-ons but don’t know how to go about doing them,,,,,
9,Harvest Partners,,www.harvestpartners.com,2000000000.0,Industrial Products,PE Firm,,Associated Materials (Prior); Driven Brands (Consumer),Did addons for Associated Materials while they owned it,,,,,
10,Irving Place Capital,,www.irvingplacecapital.com,4400000000.0,Consumer products; Industrial,PE Firm,,Bendon; New York and Co; Rag and Bone,"Have both branded consumer companies and industrial companies; DR used to have a contact there ""Doug Kohn""",,,,,
11,Kelso & Company,,www.kelso.com,11200000000.0,Consumer Products; Building products,PE Firm,,Augusta Sportsware; Eagle Foods,DR says he knows Phil Berney or has heard of him; Big on branded consumer products; Looking for addons on some of their portfolio companies,,,,,
12,Kohlberg and Company,,www.kohlberg.com,7500000000.0,Industrial; Consumer Products,PE Firm,,Nelson (Neutraceutical); NBG Home Décor Products; Hoffmaster Group,,,,,,
13,KPS Capital Partners LP,,www.kpsfund.com,5200000000.0,Consumer products; Industrial,PE Firm,,Taylor Made; Winoa,,,,,,
14,Nautic Partners LLC,,www.nautic.com,13000000000.0,Industrial Products,PE Firm,,Custom Windows; Precision Engineered Products,We've had contact with them before for FS so it's going to be  warm contact; They do a lot of industrial products (e.g. Custom Windows),,,,,
15,Palladium Equity Partners,,www.palladiumequity.com,2100000000.0,Consumer products; Industrial,PE Firm,,Sahale Snacks; Kars Snacks,,,,,,
16,Platinum Equity,,www.platinumequity.com,6500000000.0,Industrial Products,PE Firm,,SCM Metal Products; International textile product,,,,,,
17,The Riverside Company,,www.riversidecompany.com,6000000000.0,Consumer Brands; Specialty Mfg and Distribution,PE Firm,,Lille Baby; Blue Electronics,"Have a full section of ""seeking addons for .. "" currently looking for Sunrise Windows (replacement windows companies",,,,,
18,Sun Capital Partners,,www.suncappart.com,9000000000.0,Consumer Brands; Industrials,PE Firm,,Trulite; Arrow Tru-Line,DR knows Marc Leder ( I think); They are big in consumer and industrial (building products),,,,,
19,Thomas H. Lee Partners,,www.thl.com,10000000000.0,Consumer & Retail,PE Firm,,Give & Go Bakery; CTI Foods,Big in consumer and retail industry; Have done some addon acquisitions previously,,,,,
20,TSG Cosumer Partners,,www.tsgconsumer.com,5000000000.0,Consumer Brands,PE Firm,,Smashbox; Beauty Bands; Elf; Cutex,they are purely consumer focussed; Seems that most of their strategy is organic growth (from case studies they have),,,,,
21,Acima Credit,,,,Consumer Retail; Consumer Services,Deal Target,,,,Rent-to-own consumer financing provider for durable consumer goods retailing,,,,
22,Jefferies,,,,,,,,,,,,,
23,Baird,,,,,,,,,,,,,
24,Array,,,,Consumer Retail; Consumer Services,Deal Target,,,,Provider of end-to-end beauty merchandising solutions,,,,
25,Barclays,,,,,,,,,,,,,
26,Electrical Components International,,,,Consumer Retail; Consumer Products,Deal Target,,,,"Designer and manufacturer of electrical wire harnesses, control boxes and other value added components",,,,
27,SunTrust,,,,,,,,,,,,,
28,European Wax Center,,,,Consumer Retail; Retail,Deal Target,,,,Operator of over 600 waxing centers across the United States,,,,
29,Houlihan Lokey UBS,,,,,,,,,,,,,
30,Guitar Center,,,,Consumer Retail; Retail,Deal Target,,,,Leading retailer of musical instruments in the United States,,,,
31,Barclays Goldman Sachs,,,,,,,,,,,,,
32,Hearthside,,,,Consumer Retail; Food & Beverage,Deal Target,,,,"Bakery, nutrition bar, snack and customized packaging solutions provider and supplier",,,,
33,Lazard,,,,,,,,,,,,,
34,Holley Performance Products,,,,Consumer Retail; Consumer Products,Deal Target,,,,"Designer, manufacturer and marketer of branded aftermarket products for car racing and street performance",,,,
35,Newell Industrial & Commercial Brands,,,,Consumer Retail; Consumer Products,Deal Target,,,,"Newell announced exploration of divestiture of various consumer and industrial brands, including Waddington, Process Solutions, and Mapa",,,,
36,Nomura Bank of America,,,,,,,,,,,,,
37,OneSpaWorld,,,,Consumer Retail; Consumer Services,Deal Target,,,,"Largest global operator of spa, salon, wellness and fitness facilities onboard cruise ships; also does spa management",,,,
38,Pet Supplies Plus,,,,Consumer Retail; Retail,Deal Target,,,,Third largest U.S. pet specialty retailer,,,,
39,Wells Fargo,,,,,,,,,,,,,
40,Post Private Brands,,,,Consumer Retail; Food & Beverage,Deal Target,,,,"Manufacturer and distributor of organic and conventional private label peanut butter and other nut butters, baking nuts, granola, pasta, dried fruit and trail mixes",,,,
41,Goldman Sachs,,,,,,,,,,,,,
42,Smucker Baking & Breakfast Brands,,,,Consumer Retail; Food & Beverage,Deal Target,,,,"Smucker's portfolio of breakfast and dessert brands, including Pillsbury, Hungry Jack, White Lilly, Jim Dandy and Martha White",,,,
43,Morgan Stanley,,,,,,,,,,,,,
44,Teasdale Latin Foods,,,,Consumer Retail; Food & Beverage,Deal Target,,,,"Largest exclusive full-line supplier of high-quality value-added private label, branded and comanufactured Hispanic inspired foods in the U.S.",,,,
45,AEA,,,,,,,,,,,,,
46,ThreeSixty Group,,,,Consumer Retail; Consumer Products,Deal Target,,,,"Designer, sourcer, and seller of high-velocity hardline consumer products bundled under curated merchandise programs",,,,
47,Cypress Group,,,,,,,,,,,,,
48,US Beef,,,,Consumer Retail; Restaurants,Deal Target,,,,Largest Arby’s franchisee with 362 stores in 9 Midwest and Western states,,,,
49,UBS,,,,,,,,,,,,,
50,5-Hour Energy,,,,Consumer Retail; Food & Beverage,Deal Target,,,,Producer of liquid energy shots,,,,
51,DaVita Dialysis / American Renal Associates,,,,Healthcare; Providers,Deal Target,,,,Credit Suisse advising DaVita on possible acquisition of ARA / looking for partner to help acquire half of ARA's centers,,,,
52,Houlihan Lokey,,,,,,,,,,,,,
53,Elite Dental,,,,Healthcare; Retail and Consumer Health,Deal Target,,,,DSO,,,,
54,Horizon Primary Care,,,,Healthcare; Pharma / Pharma Services,Deal Target,,,,Portfolio of 4 primary care / join pain drugs,,,,
55,Steadman Clinic,,,,Healthcare; Providers,Deal Target,,,,"Orthopedic surgery clinics in Vail, Colorado",,,,
56,Signal Hill,,,,,,,,,,,,,
57,Ecinity,,,,Consumer Retail; Retail,Deal Target,,,,E-commerce platform for reverse logistics / Potential add-on for Bargain Hunt,,,,
58,umentioned,,,,Consumer Retail; Consumer Services,Deal Target,,,,Phillips add-on,,,,
59,Bitnami,,,,Consumer Retail; Food & Beverage,Deal Target,,,,CTI Foods add-on,,,,
60,Cascadia Capital,,,,,,,,,,,,,
61,FlightCar,,,,Consumer Retail; Retail,Deal Target,,,,Phillips add-on; conducting due diligence,,,,
62,JPM,,,,,,,,,,,,,
63,BuildZoom,,,,Healthcare; Retail and Consumer Health,Deal Target,,,,Urgent care provider in tri-state area with 68 facilities,,,,
64,TM Capital,,,,,,,,,,,,,
65,Signpost,,,,Consumer Retail; Food & Beverage,Deal Target,,,,Give & Go add on; marketed financing,,,,
66,William Blair,,,,,,,,,,,,,
67,Houzz,,,,Healthcare; Medical Devices / Products,Deal Target,,,,Manufacturer serving global medical device and aerospace & defense OEMs,,,,
68,Insurance Zebra,,,,Healthcare; Provider Outsourcing,Deal Target,,,,Contemplating combination with HSS that would result in 50% / 50% ownership,,,,
69,Siegel Management,,,,,,,,,,,,,
70,Conversocial,,,,Consumer Retail; Food & Beverage,Deal Target,,,,CTI Foods add-on,,,,
71,RBC,,,,,,,,,,,,,
72,SÅsh,,,,Consumer Retail; Retail,Deal Target,,,,Furniture and mattress retailer in the Midwest with 110 stores,,,,
73,Belly,,,,Consumer Retail; Restaurants,Deal Target,,,,Divestiture from Bob Evans Farms with 524 restaurants across 18 states,,,,
74,Moelis,,,,,,,,,,,,,
75,Thalmic,,,,Consumer Retail; Restaurants,Deal Target,,,,Casual dining restaurants,,,,
76,IFTTT,,,,Consumer Retail; Retail,Deal Target,,,,AVF add-on,,,,
77,BMO,,,,,,,,,,,,,
78,SmartThings,,,,Healthcare; Provider Outsourcing,Deal Target,,,,Provider of outsourced clinical services to hospitals and health systems,,,,
79,Piper Jaffray,,,,,,,,,,,,,
80,North Point,,,,,,,,,,,,,
81,iCracked Inc.,,,,Consumer Retail; Restaurants,Deal Target,,,,Franchisor of Checkers and Rally's restaurants with 837 units across the US,,,,
82,Credit Suisse,,,,,,,,,,,,,
83,DB,,,,,,,,,,,,,
84,Nextdoor.com,,,,Consumer Retail; Restaurants,Deal Target,,,,Chuck E. Cheese's and Peter Piper Pizza brands; 559 venues and 188 franchises across 47 states and 12 foreign countries,,,,
85,littleBits,,,,Consumer Retail; Food & Beverage,Deal Target,,,,Supplier of baked goods to quick service restaurants globally,,,,
86,Fieldbrook Foods,,,,Consumer Retail; Food & Beverage,Deal Target,,,,Manufacturer of packaged ice cream and frozen novelty products,,,,
87,Duff & Phelps,,,,,,,,,,,,,
88,Gordmans Stores,,,,Consumer Retail; Retail,Deal Target,,,,Midwestern everyday low price department store with 106 stores,,,,
89,Advisory Board Company,,,,Healthcare; Provider Outsourcing,Deal Target,,,,IMX opportunity,,,,
90,Greif & Co,,,,,,,,,,,,,
91,Capital Brands,,,,Consumer Retail; Consumer Products,Deal Target,,,,Designer and marketer of branded health and wellness products; most notably kitchen countertop appliances,,,,
92,Harris Williams,,,,,,,,,,,,,
93,Express Oil Change & Tire,,,,Consumer Retail; Retail,Deal Target,,,,Automotive aftermarket services platform with 290 locations in the southeastern US,,,,
94,Perkins & Marie Callender's,,,,Consumer Retail; Restaurants,Deal Target,,,,"Casual family restaurants and bakery business across US, Canada, and Mexico",,,,
95,Petmate,,,,Consumer Retail; Consumer Products,Deal Target,,,,Pet product manufacturer,,,,
96,MB2 Dental Solutions,,,,Healthcare; Retail and Consumer Health,Deal Target,,,,"Dental Services Organization (“DSO”) servicing practices in TX, NM, OK, LA, TN and AK",,,,
97,Finnea Group,,,,,,,,,,,,,
98,Synergy Health Partners,,,,Healthcare; Providers,Deal Target,,,,"Orthopedic, spine, and pain management healthcare system in the SE Michigan area",,,,
99,Thermo Fisher Assets,,,,Healthcare; Medical Devices / Products,Deal Target,,,,"Thermo spinning off some assets, NDA in process",,,,
100,Country Fresh,,,,Consumer Retail; Food & Beverage,Deal Target,,,,Fresh-cut fruits and vegetables wholesale business,,,,
101,PDC Brands,,,,Consumer Retail; Consumer Products,Deal Target,,,,Global portfolio of beauty and wellness brands,,,,
102,Focal Point,,,,,,,,,,,,,
103,Heartland Automotive Services,,,,Consumer Retail; Consumer Products,Deal Target,,,,America’s largest Jiffy Lube franchisee with 530 stores across 26 states,,,,
104,Melissa & Doug,,,,Consumer Retail; Consumer Products,Deal Target,,,,Maunfacturer and purveyor of children's toys globally,,,,
105,Headwaters,,,,,,,,,,,,,
106,Benson's,,,,Consumer Retail; Food & Beverage,Deal Target,,,,Give & Go add-on,,,,
107,Ob Hospitalist Group,,,,Healthcare; Providers,Deal Target,,,,Obstetric and Gynecology hospitalist platform in the US,,,,
108,ProEx,,,,Healthcare; Retail and Consumer Health,Deal Target,,,,ProPT add-on opportunity with 15 clinics in MA,,,,
109,BakeMark,,,,Consumer Retail; Food & Beverage,Deal Target,,,,"Bakery ingredients distributor, manufacturer, and service provider in North America",,,,
110,Censeo,,,,Healthcare; Payor Services,Deal Target,,,,"Provides health risk assessments, quality gap closure, and care management solutions to health plans",,,,
111,Centerview,,,,,,,,,,,,,
112,DuPage Medical Group,,,,Healthcare; Providers,Deal Target,,,,Multi-specialty physician group,,,,
113,Ortholite,,,,Consumer Retail; Consumer Products,Deal Target,,,,Manufacturer of insoles provided to world's largest footwear brands,,,,
114,Café Rio,,,,Consumer Retail; Restaurants,Deal Target,,,,Fast casual Mexican restaurants with 114 units across 12 states,,,,
115,Guggenheim,,,,,,,,,,,,,
116,American Medical Response,,,,Healthcare; Provider Outsourcing,Deal Target,,,,Emergency medical services and transportation,,,,
117,Allergy Partners,,,,Healthcare; Providers,Deal Target,,,,Allergy and asthma services platform with 133 locations across 23 states,,,,
118,Western Reserve Partners,,,,,,,,,,,,,
119,Kichler,,,,Consumer Retail; Consumer Products,Deal Target,,,,"Developer of decorative residential and light commercial lighting products, ceiling fans and LED task lighting product solutions",,,,
120,Canaccord,,,,,,,,,,,,,
121,Urgent Care Group,,,,Healthcare; Retail and Consumer Health,Deal Target,,,,Management team looking for investors to back consolidation of urgent care clinics,,,,
122,American Freight,,,,Consumer Retail; Retail,Deal Target,,,,Furniture retailer with 128 stores across 23 states,,,,
123,Le-Vel,,,,Consumer Retail; Food & Beverage,Deal Target,,,,"Direct-seller of branded wellness and nutritional products across US, Canada, Mexico, Australia, the UK, and New Zealand",,,,
124,Blaze Pizza,,,,Consumer Retail; Restaurants,Deal Target,,,,Fast casual pizza restaurants with 173 locations across 31 states,,,,
125,Back to Nature,,,,Consumer Retail; Food & Beverage,Deal Target,,,,Multi-channel branded snacking platform in North America currently composed of Back to Nature and Snackwell's brands,,,,
126,Captain D's,,,,Consumer Retail; Restaurants,Deal Target,,,,Fast casual seafood restaurants with 516 units across 21 states,,,,
127,Dade Paper,,,,Consumer Retail; Restaurants,Deal Target,,,,"Independent distributor of foodservice disposables, janitorial supplies, and cleaning equipment in the Eastern US",,,,
128,PJSC,,,,,,,,,,,,,
129,El Rancho,,,,Consumer Retail; Retail,Deal Target,,,,"Latino-focused specialty food retailer and distributor, with 15 stores in Texas",,,,
130,Kriser's Natural Pet,,,,Consumer Retail; Retail,Deal Target,,,,"Retailer of pet food, supplies, and grooming services with 42 locations across the US",,,,
131,Pennant Foods,,,,Consumer Retail; Restaurants,Deal Target,,,,"Franchisee of Wendy's, with 87 locations across US",,,,
132,Uncle Julio's,,,,Consumer Retail; Restaurants,Deal Target,,,,"Upscale, full-service Mexican restaurants with 27 locations across 7 states",,,,
133,United Natural Foods,,,,Consumer Retail; Consumer Services,Deal Target,,,,"Largest natural, organic, and specialty foods distributor in US and Canada",,,,
134,Citi,,,,,,,,,,,,,
135,US Fitness,,,,Consumer Retail; Other,Deal Target,,,,"Fitness platform with 38 clubs in the Mid-Atlantic and Southeast composed of the Onelife, Sport & Health, and Crunch banners",,,,
136,Pier 1 Imports,,,,Consumer Retail; Retail,Deal Target,,,,Public home furnishings and furniture retailer,,,,
137,Snooze Eatery,,,,Consumer Retail; Restaurants,Deal Target,,,,Breakfast and brunch focused restaurant growth company,,,,
138,Healthtronics,,,,Healthcare; Providers,Deal Target,,,,Provider of outsourced urological services,,,,
139,HemaSource,,,,Healthcare; Distribution,Deal Target,,,,Technology enabled distributor of medical supplies for plasma collection centers,,,,
140,REVA,,,,Healthcare; Provider Outsourcing,Deal Target,,,,Fixed-wing air medical transport services,,,,
141,Carrabba's,,,,Consumer Retail; Restaurants,Deal Target,,,,Casual authentic Italian restaurant serving handcrafted dishes,,,,
142,Allen & Co,,,,,,,,,,,,,
143,Millennium Health,,,,Healthcare; Providers,Deal Target,,,,Entered exclusivity period but currently pencils down due to Medicare uncertainty,,,,
144,KBS,,,,Consumer Retail; Other,Deal Target,,,,GCA add-on,,,,
145,Steven-Robert Originals,,,,Consumer Retail; Food & Beverage,Deal Target,,,,Give and Go add-on,,,,
146,Bay State,,,,Healthcare; Retail and Consumer Health,Deal Target,,,,ProPT add-on opportunity with ~50 clinics in MA & NH,,,,
147,Premier,,,,Healthcare; Healthcare,Deal Target,,,,Private duty nursing / capitated risk / HSAs,,,,
148,Capsa,,,,Healthcare; Medical Devices / Products,Deal Target,,,,Developer and manufacturer of point of care workstations,,,,
149,Smile Doctors,,,,Healthcare; Retail and Consumer Health,Deal Target,,,,Scale orthodontics platform,,,,
150,Invista,,,,Consumer Retail; Consumer Products,Deal Target,,,,"Apparel technology company developing, producing, branding, and marketing fibers and fabrics",,,,
151,King's Pastry,,,,Consumer Retail; Food & Beverage,Deal Target,,,,Give & Go add-on,,,,
152,Deckers Brands,,,,Consumer Retail; Consumer Products,Deal Target,,,,"Portfolio of brands including UGG, Teva, Sanuk, Hoka, and Koolaburra",,,,
153,First Watch,,,,Consumer Retail; Restaurants,Deal Target,,,,Chain of full-service daytime cafés focused on breakfast and brunch offerings,,,,
154,RXBAR,,,,Consumer Retail; Food & Beverage,Deal Target,,,,Snack brand offering whole-food protein bars,,,,
155,Morris Furniture,,,,Consumer Retail; Retail,Deal Target,,,,"AVF add-on with 16 stores (10 Ashley stores) operating in Cincinnati, Dayton, and Columbus",,,,
156,Cain,,,,,,,,,,,,,
157,Clinical Innovations,,,,Healthcare; Medical Devices / Products,Deal Target,,,,Provider of consumables for L&D and NICU departments,,,,
158,Summit BHC,,,,Healthcare; Retail and Consumer Health,Deal Target,,,,Behavioral health with focus on addiction services; NDA in process,,,,
159,ERC,,,,Healthcare; Retail and Consumer Health,Deal Target,,,,"Vertically integrated, national care system dedicated to eating disorders; NDA in process",,,,
160,Young Innovations,,,,Healthcare; Medical Devices / Products,Deal Target,,,,Manufacturer of branded and private label dental consumables,,,,
161,Argon,,,,Healthcare; Medical Devices / Products,Deal Target,,,,"Manufacturer of single-use interventional products, primarily targeted towards Interventional Radiologists",,,,
162,Boston Market,,,,Consumer Retail; Restaurants,Deal Target,,,,Fast casual rotisserrie chicken brand with 459 restaurants across 33 states,,,,
163,RxCrossroads,,,,Healthcare; Pharma / Pharma Services,Deal Target,,,,Provides integrated set of services to pharma companies to drive higher rates of penetration and compliance for specialty drugs; CVS Health divestiture; NDA in process,,,,
164,Mallinckrodt Controlled Substances,,,,Healthcare; Pharma / Pharma Services,Deal Target,,,,Mallinckrodt spin-out of vertically integrated controlled substances generics business,,,,
165,Key Banc,,,,,,,,,,,,,
166,Renaissance Imaging Medical Associates,,,,Healthcare; Providers,Deal Target,,,,Largest independent provider of on-site radiology services in California / one of largest groups in the U.S.,,,,
167,Manna Pro,,,,Consumer Retail; Consumer Services,Deal Target,,,,Supplier and distributor of nutrition & care products for pets,,,,
168,Sizzling Platter,,,,Consumer Retail; Restaurants,Deal Target,,,,"Franchisee of Little Caesars, Dunkin' and Wingstop with 443 locations across the US and Mexico",,,,
169,Vision Direct,,,,Healthcare; Retail and Consumer Health,Deal Target,,,,1-800 CONTACTS add-on,,,,
170,General Pet,,,,Consumer Retail; Consumer Services,Deal Target,,,,Phillips add-on,,,,
171,Clear Choice,,,,Healthcare; Retail and Consumer Health,Deal Target,,,,Operator of 36 dental restoration and dental implant treatment centers,,,,
172,Traeger,,,,Consumer Retail; Consumer Products,Deal Target,,,,Branded wood pellet grills & smokers,,,,
173,MDVIP,,,,Healthcare; Providers,Deal Target,,,,Largest concierge provider of membership-based private healthcare services,,,,
174,Fontanini,,,,Consumer Retail; Food & Beverage,Deal Target,,,,CTI Foods add-on; re-submitted bid to management - awaiting feedback,,,,
175,Laces,,,,Consumer Retail; Consumer Products,Deal Target,,,,"Designer, manufacturer, and marketer of bath accessories and home goods to retailers across North America",,,,
176,Shopko,,,,Consumer Retail; Retail,Deal Target,,,,Operator of 383 general merchandise stores across 26 states,,,,
177,TriMark,,,,Consumer Retail; Restaurants,Deal Target,,,,"Provider of commercial kitchen equipment, restaurant supplies & design services",,,,
178,Unidine,,,,Consumer Retail; Consumer Services,Deal Target,,,,Provider of food and dining management services to healthcare end market (senior living and hospitals),,,,
179,Mel-O-Cream,,,,Consumer Retail; Food & Beverage,Deal Target,,,,"Give & Go add-on; donut plant in Springfield, IL; current revenue of $12mm and capacity for $50-$60mm",,,,
180,MEDHOST,,,,Healthcare; Provider Outsourcing,Deal Target,,,,Full-service healtcare information services vendor,,,,
181,Benevis,,,,Healthcare; Retail and Consumer Health,Deal Target,,,,Dental support organization with 147 offices across the eastern Unted States,,,,
182,Coventry Workers' Comp,,,,Healthcare; Payor Services,Deal Target,,,,Coventry's workers' comp segment; potential carve-out opportunity,,,,
183,Laser Spine Institute,,,,Healthcare; Providers,Deal Target,,,,Provider of minimally invasive spine surgery operating 7 U.S. centers,,,,
184,BR Partners,,,,,,,,,,,,,
185,Regina,,,,Consumer Retail; Retail,Deal Target,,,,Party City add-on; conducting due diligence,,,,
186,Old Chicago,,,,Consumer Retail; Restaurants,Deal Target,,,,Full-service casual dining concept,,,,
187,Qdoba,,,,Consumer Retail; Restaurants,Deal Target,,,,Fast-casual Mexican restaurant,,,,
188,iHerb,,,,Consumer Retail; Food & Beverage,Deal Target,,,,"Pure play online retailer of VMS, natural/organic personal care, and other health and wellness products",,,,
189,Cloverleaf Cold Storage,,,,Consumer Retail; Food & Beverage,Deal Target,,,,"Family-owned and operated warehouse company offering public and contract storage in refrigerated, frozen, and dry environments",,,,
190,Deutsche Bank,,,,,,,,,,,,,
191,Dole Food Company,,,,Consumer Retail; Food & Beverage,Deal Target,,,,Grower and distributor of fresh fruits and vegetables,,,,
192,Medicus,,,,Healthcare; Provider Outsourcing,Deal Target,,,,4th largest locum tenens staffing company,,,,
193,ASC,,,,Consumer Retail; Consumer Services,Deal Target,,,,Phillips add-on,,,,
194,Fast Track It,,,,Consumer Retail; Retail,Deal Target,,,,Bargain Hunt add-on; re-engaging with sellers in the fall,,,,
195,Statewide,,,,Consumer Retail; Consumer Services,Deal Target,,,,Phillips add-on; Oklahoma based pet food distributor.  Receiving preliminary financial data,,,,
196,Rothschild,,,,,,,,,,,,,
197,Tyson Kettle,,,,Consumer Retail; Food & Beverage,Deal Target,,,,"Asset sale of Tyson’s kettle business, which produces sauces, dips, soups and sides",,,,
198,Deloitte,,,,,,,,,,,,,
199,United Pacific Pet,,,,Consumer Retail; Consumer Services,Deal Target,,,,Phillips add-on; Southern California based pet food distributor,,,,
200,Del Frisco's,,,,Consumer Retail; Restaurants,Deal Target,,,,Owns and operates 3 steakhouse restaurant concepts,,,,
201,Exxon Assets,,,,Consumer Retail; Retail,Deal Target,,,,Purchase of Exxon assets with partner Capital Petroleum Group.  Submitted IOI on 4/24.,,,,
202,Fiesta Restaurant Group,,,,Consumer Retail; Restaurants,Deal Target,,,,Public company that operates Pollo Tropical and Taco Cabana fast casual dining brands; submitted IOI,,,,
203,Luna Grill,,,,Consumer Retail; Restaurants,Deal Target,,,,Fast casual Mediterranean restaurant,,,,
204,Quala,,,,Consumer Retail; Consumer Services,Deal Target,,,,"Provides cleaning, testing and repair services for commercial & industrial portable liquid and dry bulk containers",,,,
205,Teva Women's Health,,,,Healthcare; Pharma / Pharma Services,Deal Target,,,,Spin out of US and Europe women's health products,,,,
206,TricorBraun,,,,Consumer Retail; Other,Deal Target,,,,,,,,
207,Zodiac,,,,Consumer Retail; Other,Deal Target,,,,Pure play pool equipment and solutions,,,,
208,Café Valley,,,,Consumer Retail; Food & Beverage,Deal Target,,,,Give & Go add-on,,,,
209,Sweet Sam's,,,,Consumer Retail; Food & Beverage,Deal Target,,,,Give & Go add-on; iced pound cake and crumb cake,,,,
210,ACG & PRP,,,,Consumer Retail; Restaurants,Deal Target,,,,"Largest IHOP franchisee, currently operating 113 restaurants across 8 states",,,,
211,Carolina Beverage Group,,,,Consumer Retail; Food & Beverage,Deal Target,,,,"North American contract beverage manufacturer operating facilities in Mooresville, North Carolina and Fort Worth, Texas",,,,
212,GoWireless,,,,Consumer Retail; Retail,Deal Target,,,,Exclusive retailer of Verizon wireless stores; Blair facilitating one-off discussion with owner,,,,
213,Huddle House,,,,Consumer Retail; Restaurants,Deal Target,,,,Franchisor and operator of 358 homestyle cooking diners with heavy presence in Southeast. Currently owned by Sentinel,,,,
214,Nonni's,,,,Consumer Retail; Food & Beverage,Deal Target,,,,largest independent premium baked snacking brand & platform in North America,,,,
215,Peter J Solomon,,,,,,,,,,,,,
216,Tillys,,,,Consumer Retail; Retail,Deal Target,,,,Specialty apparel retailer operating 221 stores in 31 states,,,,
217,Variety Wholesalers,,,,Consumer Retail; Retail,Deal Target,,,,"Conglomerate of retail stores including Roses, Maxway, and Super 10, amongst others; one-off discussion with owner",,,,
218,Vitamin Shoppe,,,,Consumer Retail; Retail,Deal Target,,,,Multi-channel specialty retailer and contract manufacturer of nutritional products in the United States and internationally,,,,
219,Midwest Dental,,,,Healthcare; Retail and Consumer Health,Deal Target,,,,"Dental support organiziation (DSO), owned by FFL",,,,
220,JP Morgan,,,,,,,,,,,,,
221,BJ's Wholesale Club,,,,Consumer Retail; Retail,Deal Target,,,,Wholesale club operator with 215 warehouse locations and 5.2mm members,,,,
222,AccentCare,,,,Healthcare; Providers,Deal Target,,,,"Provider of home health services, owned by Oak Hill",,,,
223,Woodbridge International,,,,,,,,,,,,,
224,Atlanta Cheesecake,,,,Consumer Retail; Food & Beverage,Deal Target,,,,"Give & Go add-on; thaw-and-sell and frozen cheesecake manufacturer for grocery & wholesale club based in Kennesaw, GA",,,,
225,Brownie Brittle,,,,Consumer Retail; Food & Beverage,Deal Target,,,,Manufacturer and distributor of brownie products; Give & Go add-on,,,,
226,Allen & Co.,,,,,,,,,,,,,
227,CareCentrix,,,,Healthcare; Payor Services,Deal Target,,,,Provider of care-coordination for post-acute care,,,,
228,NxGen MDx,,,,Healthcare; Providers,Deal Target,,,,Genetic carrier testing,,,,
229,Cantor Fitzgerald,,,,,,,,,,,,,
230,Alecto Healthcare Services,,,,Healthcare; Other,Deal Target,,,,Owner and operator of hospitals,,,,
231,MedRisk,,,,Healthcare; Payor Services,Deal Target,,,,Physical therapy benefit manager in the Workers’ Comp space,,,,
232,Leerink,,,,,,,,,,,,,
233,New Century Health,,,,Healthcare; Payor Services,Deal Target,,,,Specialty care management company focused on Oncology and Cardiology,,,,
234,Nestlé USA Confectionary,,,,Consumer Retail; Food & Beverage,Deal Target,,,,Manufacturer and distributor of Nestlé confectionary products in the United States,,,,
235,Wheel Pros,,,,Consumer Retail; Consumer Products,Deal Target,,,,"Designer, marketer, and distributor of branded aftermarket wheels, performance tires, and accessories",,,,
236,Nutex Health,,,,Healthcare; Other,Deal Target,,,,Texas-based freestanding ED & micro-hospital operator,,,,
237,Potbelly,,,,Consumer Retail; Restaurants,Deal Target,,,,"Owner, operator, and franchisor of 441 sandwich shops across the United States",,,,
238,BAML,,,,,,,,,,,,,
239,Chuy's,,,,Consumer Retail; Restaurants,Deal Target,,,,Casual dining Tex-Mex restaurant chain with 85 locations,,,,
240,Ferraro Foods,,,,Consumer Retail; Consumer Services,Deal Target,,,,Specialty Italian foodservice distributor,,,,
241,Indigo Wild,,,,Consumer Retail; Consumer Products,Deal Target,,,,"Manufacturer and distributor of all-natural, handcrafted bath, skin, home and cleaning products.",,,,
242,RugsUSA,,,,Consumer Retail; Retail,Deal Target,,,,E-Retailer of rugs,,,,
243,Spice World,,,,Consumer Retail; Food & Beverage,Deal Target,,,,Producer of branded fresh garlic and other ingredients and spices sold in grocery retail,,,,
244,Spinrite,,,,Consumer Retail; Consumer Products,Deal Target,,,,Manufacturer and distributor of craft yarn products,,,,
245,Sweet Harvest Foods,,,,Consumer Retail; Food & Beverage,Deal Target,,,,Producer and distributor of honey,,,,
246,Schneider Downs,,,,,,,,,,,,,
247,Levin Furniture,,,,Consumer Retail; Retail,Deal Target,,,,Closed 11/22/2017,,,,
248,Wolf Furniture,,,,Consumer Retail; Retail,Deal Target,,,,Closed 11/22/2017,,,,
249,Just Desserts,,,,Consumer Retail; Food & Beverage,Deal Target,,,,Give & Go add-on,,,,
250,Kroger Convenience Stores,,,,Consumer Retail; Retail,Deal Target,,,,"Owner, operator, and franchisor of 762 convenience stores across 18 states",,,,
251,Berner Food & Beverage,,,,Consumer Retail; Food & Beverage,Deal Target,,,,Manufacturer of shelf-stable dairy-based food and beverage products,,,,
252,Zoë's Kitchen,,,,Consumer Retail; Restaurants,Deal Target,,,,Operator of over 200 owned or franchised fast-casual restaurants across 20 states,,,,
253,Jordan Home Health,,,,Healthcare; Providers,Deal Target,,,,Provider of home health services / Potential combination with Blue Wolf,,,,
254,Interdent,,,,Healthcare; Retail and Consumer Health,Deal Target,,,,DSO,,,,
255,Cowen,,,,,,,,,,,,,
256,The Saatva Company,,,,Consumer Retail; Consumer Products,Deal Target,,,,"Online, direct to consumer luxury mattress company",,,,
257,Correct Care Solutions,,,,Healthcare; Providers,Deal Target,,,,Public health outsourcing platform,,,,
258,Milani,,,,Consumer Retail; Consumer Products,Deal Target,,,,"Beauty brand focused on mass face, lip, and eye products",,,,
259,Lifetouch,,,,Consumer Retail; Consumer Services,Deal Target,,,,Largest professional photography company in the world,,,,
260,Dorel Home,,,,Consumer Retail; Consumer Products,Deal Target,,,,Manufacturer and distributor of ready-to-assemble furniture and home furnishings; operating segment within Dorel Industries,,,,
261,Aryzta Facilities,,,,Consumer Retail; Consumer Products,Deal Target,,,,Two Aryzta plants located in IL with a combined 428K sq. ft. of manufacturing space and a NBV of $93mm / G&G add-on,,,,
262,Dentalcorp,,,,Healthcare; Retail and Consumer Health,Deal Target,,,,Canadian DSO,,,,
263,N,,,,,,,,,,,,,
264,A,,,,,,,,,,,,,
265,Schweiger Dermatology,,,,Healthcare; Retail and Consumer Health,Deal Target,,,,Roll-up of dermatology practices / owned by LLR partners,,,,
266,North Point Advisors,,,,,,,,,,,,,
267,Firebirds,,,,Consumer Retail; Restaurants,Deal Target,,,,Owner and operator of 45 Firebirds branded restaurants across the United States,,,,
268,Pacon,,,,Consumer Retail; Consumer Products,Deal Target,,,,Producer and marketer of arts and crafts products,,,,
269,Lincoln International,,,,,,,,,,,,,
270,Potpourri Group,,,,Consumer Retail; Consumer Products,Deal Target,,,,"Direct-to-consumer marketer of women's apparel and accessories, home products, and gift products",,,,
271,Evolution Research Group,,,,Healthcare; Pharma / Pharma Services,Deal Target,,,,Largest independent clinical research site services company focused on special populations; market leader in CNS,,,,
272,Footnote:,,,,,Deal Target,,,,,,,,
273,(1) Dead includes both failed auctions and deals completed by others,,,,,Deal Target,,,,,,,,
274,Shermco,,,,"Business Services; Testing, Inspection & Certificaiton",Deal Target,,,,"Electrical testing, maintenance, and commissioning services",,,,
275,Kastle Systems,,,,Business Services; Facilities Services,Deal Target,,,,"Provider of comprehensive, turnkey security solutions",,,,
276,CLEAResult,,,,Business Services; Facilities Services,Deal Target,,,,Provider of energy efficiency and demand management programs,,,,
277,PLH,,,,Business Services; Industrial & Environmental Services,Deal Target,,,,Specialty contractor serving the electric power and energy pipeline infrastructure markets,,,,
278,BBB Industries,,,,Business Services; Specialty Distribution,Deal Target,,,,Provider of remanufactured replacement parts to the automotive aftermarket,,,,
279,Restaurant Technology,,,,Business Services; Industrial & Environmental Services,Deal Target,,,,"Provider of cooking oil solutions to the restaurant, hospitality and foodservice markets",,,,
280,Osmose,,,,Business Services; Industrial & Environmental Services,Deal Target,,,,Provider of maintenance services to the transmission and distribution infrastructure grid,,,,
281,Quality Solutions,,,,Business Services; Facilities Services,Deal Target,,,,"Managers of facilities services for retail, foodservice, and other industries",,,,
282,SRS Distribution,,,,Business Services; Specialty Distribution,Deal Target,,,,Roofing distributor,,,,
283,Raymond James,,,,,,,,,,,,,
284,Discover.org,,,,Business Services; Marketing Services,Deal Target,,,,Info services with focus on B2B sales,,,,
285,Carve out of Navigant,,,,Business Services; Professional Services,Deal Target,,,,"Legal, risk and compliance consulting platform",,,,
286,Crossmark,,,,Business Services; Marketing Services,Deal Target,,,,Sales and marketing services for the consumer goods industry,,,,
287,MeridianLink,,,,Business Services; Financial Technology,Deal Target,,,,Underwriting software for financial institutions,,,,
288,FT Partners,,,,,,,,,,,,,
289,CompoSecure,,,,Business Services; Payments,Deal Target,,,,Leading designer and manufacturer of high-end metal cards,,,,
290,PLI,,,,Business Services; Payments,Deal Target,,,,"Manufacturer and designer of cards for gift cards, loyalty programs and hospitality",,,,
291,KeyBanc,,,,,,,,,,,,,
292,FMG,,,,Business Services; Marketing Services,Deal Target,,,,Financial advisor and insurance broker marketing software and related marketing services,,,,
293,GS,,,,,,,,,,,,,
294,US Security Associates,,,,Business Services; Facilities Services,Deal Target,,,,Outsourced security services,,,,
295,Red Hawk Fire & Security,,,,Business Services; Facilities Services,Deal Target,,,,Fire and security systems integration,,,,
296,Halo,,,,Business Services; Specialty Distribution,Deal Target,,,,Promotional products marketing services,,,,
297,Qualtek,,,,Business Services; Technology Services,Deal Target,,,,Telecommunications services,,,,
298,Dwyer Group,,,,Business Services; Facilities Services,Deal Target,,,,Holding company for 11 service-based franchise organizations,,,,
299,PSSI,,,,Business Services; Industrial & Environmental Services,Deal Target,,,,Food processing cleaning and sanitation services,,,,
300,Togetherworks,,,,Business Services; Payments,Deal Target,,,,Payments ISV,,,,
301,Genpact IT Transformation assets,,,,Business Services; Technology Services,Deal Target,,,,IT and transformation services for cap markets firms,,,,
302,Direxion Investments,,,,Business Services; Asset Management,Deal Target,,,,Provides index-based ETF and mutual fund products,,,,
303,Amherst Pierpont,,,,Business Services; Financial Services,Deal Target,,,,Broker dealer operating in the fixed income capital markets,,,,
304,Zafin,,,,Business Services; Financial Technology,Deal Target,,,,Bank software,,,,
305,Direct to Company,,,,,,,,,,,,,
306,SMS Assist,,,,Business Services; Technology Services,Deal Target,,,,Tech services,,,,
307,Secure 24,,,,Business Services; Technology Services,Deal Target,,,,Managed IT Services,,,,
308,BKD Corporate Finance,,,,,,,,,,,,,
309,Project Yoder,,,,Business Services; Professional Services,Deal Target,,,,Supply chain consulting,,,,
310,Galls,,,,Business Services; Specialty Distribution,Deal Target,,,,Value-added distributor of public safety uniforms and gear,,,,
311,Planet Payment,,,,Business Services; Payments,Deal Target,,,,Payment processing solutions,,,,
312,US Retirement & Benefits Partners,,,,Business Services; Technology Services,Deal Target,,,,Provider of tech-enabled employee benefits and retirement services,,,,
313,Ryan Herco Flow Solutions,,,,Business Services; Specialty Distribution,Deal Target,,,,"Nationwide distributor of fluid conveyance, measurement, and control products",,,,
314,NV5 Global,,,,"Business Services; Testing, Inspection & Certificaiton",Deal Target,,,,TIC,,,,
315,PSI Services,,,,"Business Services; Testing, Inspection & Certificaiton",Deal Target,,,,Outsourced testing solutions,,,,
316,Energy Solutions,,,,Business Services; Industrial & Environmental Services,Deal Target,,,,Nuclear waste disposal and reactor decommissioning,,,,
317,MS,,,,,,,,,,,,,
318,Stephens,,,,,,,,,,,,,
319,Aclara Technologies,,,,Business Services; Industrial & Environmental Services,Deal Target,,,,Smart infrastructure solutions provider serving utilities,,,,
320,Convergint Technologies,,,,Business Services; Technology Services,Deal Target,,,,Systems integration,,,,
321,Stifel,,,,,,,,,,,,,
322,CFGI,,,,Business Services; Professional Services,Deal Target,,,,Outsourced CFO Services,,,,
323,Aqua Finance,,,,Business Services; Banks / Lending,Deal Target,,,,Consumer Finance,,,,
324,BlackArch,,,,,,,,,,,,,
325,Advanced Discovery,,,,Business Services; BPO,Deal Target,,,,"Legal process outsourcing, eDiscovery",,,,
326,Consilio,,,,Business Services; BPO,Deal Target,,,,"Legal process outsourcing, eDiscovery",,,,
327,Montrose Environmental,,,,"Business Services; Testing, Inspection & Certificaiton",Deal Target,,,,Environmental engineering solutions,,,,
328,Liquid Environmental Solutions,,,,Business Services; Industrial & Environmental Services,Deal Target,,,,Route based grease trap cleaning business,,,,
329,Aricent,,,,Business Services; Professional Services,Deal Target,,,,R&D engineering services,,,,
330,Prometric,,,,"Business Services; Testing, Inspection & Certificaiton",Deal Target,,,,Tech-enabled testing and assessment,,,,
331,Peak Utility Services,,,,Business Services; Industrial & Environmental Services,Deal Target,,,,Utility services provider in Pac Northwest and Intermountain West,,,,
332,CHA Consulting,,,,Business Services; Professional Services,Deal Target,,,,Engineering consulting platform,,,,
333,TransPerfect,,,,Business Services; Technology Services,Deal Target,,,,Language and Technology,,,,
334,Sandler O’Neill,,,,,,,,,,,,,
335,Snowden Lane,,,,Business Services; Financial Services,Deal Target,,,,Wealth management RIA,,,,
336,United Capital,,,,Business Services; Financial Services,Deal Target,,,,Wealth management RIA,,,,
337,Organix,,,,Business Services; Industrial & Environmental Services,Deal Target,,,,Food recycling,,,,
338,Evercore,,,,,,,,,,,,,
339,Pearl,,,,Business Services; Banks / Lending,Deal Target,,,,MGA writing nonstandard auto insurance policies,,,,
340,Project Cougar,,,,Business Services; Industrial & Environmental Services,Deal Target,,,,Utility services provider,,,,
341,HighTower,,,,Business Services; Financial Services,Deal Target,,,,Wealth management RIA,,,,
342,Gopher Resource,,,,Business Services; Industrial & Environmental Services,Deal Target,,,,Battery recycling,,,,
343,Trust Company of America,,,,Business Services; Financial Services,Deal Target,,,,Wealth management RIA,,,,
344,SMG,,,,Business Services; Marketing Services,Deal Target,,,,Convention and venue management,,,,
345,Seastar Solutions,,,,"Business Services; Testing, Inspection & Certificaiton",Deal Target,,,,"Vessel control, fuel systems, and boat system integration",,,,
346,Cross Country Infrastructure,,,,Business Services; Industrial & Environmental Services,Deal Target,,,,Outsourced equipment and service provider to midstream pipeline market,,,,
347,Divisions Maintenance Group,,,,Business Services; Facilities Services,Deal Target,,,,Facilities outsourcing,,,,
348,DRB Systems,,,,Business Services; Technology Services,Deal Target,,,,System of systems technology for car wash industry,,,,
349,American Advisors Group,,,,Business Services; Banks / Lending,Deal Target,,,,Reverse Mortgages,,,,
350,Bank of America,,,,,,,,,,,,,
351,AmTrust,,,,Business Services; Insurance,Deal Target,,,,Insurance Services,,,,
352,Elior NA,,,,Business Services; Facility Services,Deal Target,,,,Foodservice management and catering,,,,
353,Guaranteed Rate,,,,Business Services; Banks / Lending,Deal Target,,,,Mortgage lending,,,,
354,Smart Carte,,,,Business Services; Transportation & Logistics,Deal Target,,,,"Self-serve vended luggage carts, electronic lockers, commercial strollers and massage chairs",,,,
355,Luma Partners,,,,,,,,,,,,,
356,MediaMath,,,,Business Services; Marketing Services,Deal Target,,,,Advertising technology,,,,
357,ABC Billing,,,,Business Services; Payments,Deal Target,,,,Software and billing provider for the health and fitness industry,,,,
358,LiquidHub,,,,Business Services; Marketing Services,Deal Target,,,,Digital Transformation,,,,
359,PrimeSource,,,,Business Services; Industrial & Environmental Services,Deal Target,,,,Construction fastening solutions,,,,
360,SIRVA,,,,Business Services; Tranportation & Logistics,Deal Target,,,,Relocation and moving services,,,,
361,Bluepay,,,,Business Services; Payments,Deal Target,,,,Merchant processing,,,,
362,Dynasty Financial Partners,,,,Business Services; Financial Services,Deal Target,,,,RIA Technology Platform,,,,
363,Evestment,,,,Business Services; Data & Information Services,Deal Target,,,,Analytics for institutional investors,,,,
364,Vaco,,,,Business Services; Human Capital Services,Deal Target,,,,Staffing,,,,
365,BenefitMall,,,,Business Services; Financial Technology,Deal Target,,,,Online payroll and benefits,,,,
366,EAG,,,,"Business Services; Testing, Inspection & Certificaiton",Deal Target,,,,Scientific Services,,,,
367,Wipro Assets,,,,Business Services; Technology Services,Deal Target,,,,Datacenter and Cloud Services,,,,
368,Treliant Risk Advisors,,,,Business Services; Professional Services,Deal Target,,,,"Governance, risk management, and compliance advisory",,,,
369,ThoughtWorks,,,,Business Services; Technology Services,Deal Target,,,,IT Consulting,,,,
370,Brightstar (U.S.),,,,Business Services; Technology Services,Deal Target,,,,B2B wireless services,,,,
371,International Catastrophe Insurance Managers,,,,Business Services; Financial Services,Deal Target,,,,Managing General Agency,,,,
372,International Cash Distributors,,,,Business Services; Financial Services,Deal Target,,,,Money Market Fund Portal,,,,
373,Dent Wizard,,,,Business Services; Industrial & Environmental Services,Deal Target,,,,Automotive reconditioning,,,,
374,Priority Payments,,,,Business Services; Payments,Deal Target,,,,Merchant acquirer,,,,
375,Phreesia,,,,Business Services; Payments,Deal Target,,,,Payments ISV,,,,
376,Strategic Materials,,,,Business Services; Industrial & Environmental Services,Deal Target,,,,Environmental services,,,,
377,Tunnel Hill,,,,Business Services; Industrial & Environmental Services,Deal Target,,,,Waste Transport Services,,,,
378,USIC,,,,Business Services; Industrial & Environmental Services,Deal Target,,,,Underground utility locating,,,,
379,A Place for Mom,,,,Business Services; Marketing Services,Deal Target,,,,Senior care referral services,,,,
380,Moravia,,,,Business Services; Professional Services,Deal Target,,,,Globalization services,,,,
381,BHI,,,,Business Services; Industrial & Environmental Services,Deal Target,,,,Energy Services,,,,
382,United Site Services,,,,Business Services; Facilities Services,Deal Target,,,,Portable sanitation,,,,
383,Continuum,,,,Business Services; Financial Services,Deal Target,,,,Asset Management,,,,
384,Direct to FIS,,,,,,,,,,,,,
385,Capco,,,,Business Services; IT Services,Deal Target,,,,Financial services & tech,,,,
386,ATC Associates,,,,Business Services; Industrial & Environmental Services,Deal Target,,,,Environmental services,,,,
387,Paylease,,,,Business Services; Payments,Deal Target,,,,Payment and billing solutions,,,,
388,Discovery Education,,,,Business Services; Education Services,Deal Target,,,,K-12 Digital Education,,,,
389,Advicent,,,,Business Services; Financial Technology,Deal Target,,,,Wealth management software,,,,
390,TrustCommerce,,,,Business Services; Payments,Deal Target,,,,Payment Security Technology,,,,
391,CIBTvisas,,,,Business Services; Transportation & Logistics,Deal Target,,,,Travel visas,,,,
392,Securus Technologies,,,,Business Services; Technology Services,Deal Target,,,,Criminal justice technology,,,,
393,ThermoFisher Assets,,,,Business Services; Industrial & Environmental Services,Deal Target,,,,Environmental instruments,,,,
394,Paymetric,,,,Business Services; Payments,Deal Target,,,,B2B Payments and Software,,,,
395,Truck Hero,,,,Business Services; Specialty Distribution,Deal Target,,,,Aftermarket auto,,,,
396,Oppenheimer,,,,,,,,,,,,,
397,Stephenson’s,,,,Business Services; Banks / Lending,Deal Target,,,,Rental services,,,,
398,Rough Country,,,,Business Services; Specialty Distribution,Deal Target,,,,Aftermarket auto,,,,
399,Lund,,,,Business Services; Specialty Distribution,Deal Target,,,,Aftermarket auto,,,,
400,EnviroVac,,,,Business Services; Industrial & Environmental Services,Deal Target,,,,Industrial cleaning,,,,
401,Wind River Environmental,,,,Business Services; Industrial & Environmental Services,Deal Target,,,,Liquid environmental waste,,,,
402,DiversiTech,,,,Business Services; Specialty Distribution,Deal Target,,,,"Heating, ventilation and AC",,,,
403,RECON,,,,"Business Services; Testing, Inspection & Certificaiton",Deal Target,,,,Environmental remediation and  William Blair,,,,
404,FolioFN,,,,Business Services; Financial Services,Deal Target,,,,Wealth management,,,,
405,Andrews Advisory Group,,,,,,,,,,,,,
406,WIS International,,,,Business Services; Technology Services,Deal Target,,,,Inventory verification and retail,,,,
407,Sage Payment Solutions,,,,Business Services; Payments,Deal Target,,,,Merchant acquirer,,,,
408,TMS,,,,Business Services; Payments,Deal Target,,,,Merchant acquirer,,,,
409,Clearent,,,,Business Services; Payments,Deal Target,,,,Merchant acquirer,,,,
410,Echo Logistics,,,,Business Services; Transportation & Logistics,Deal Target,,,,Transportation logistics,,,,
411,SquareTwo Financial,,,,Business Services; Financial Services,Deal Target,,,,Asset recovery and management services,,,,
412,Take-private,,,,,,,,,,,,,
413,DH Corporation,,,,Business Services; Financial Technology,Deal Target,,,,Financial technology,,,,
414,National Response Corporation (NRC),,,,"Business Services; Testing, Inspection & Certificaiton",Deal Target,,,,Compliance and environmental services,,,,
415,SunGard Insurance,,,,Business Services; Financial Technology,Deal Target,,,,Insurance software provider,,,,
416,PSG,,,,Business Services; Specialty Distribution,Deal Target,,,,Sporting goods,,,,
417,World Business Lenders,,,,Business Services; Banks / Lending,Deal Target,,,,Small business lender,,,,
418,Jefferies & Company,,,,,,,,,,,,,
419,RW Baird,,,,,,,,,,,,,
420,RBC Capital Markets,,,,,,,,,,,,,
421,Moelis & Company,,,,,,,,,,,,,
422,Morgan Stanely,,,,,,,,,,,,,
423,Nomura,,,,,,,,,,,,,
424,Petsky Prunier,,,,,,,,,,,,,
425,AdMedia,,,,,,,,,,,,,
